{"type": "FeatureCollection", "features": [ {"type": "Feature", "properties": {"norad_id": 41774, "name": "SKYSAT-C3", "group": "resource", "lat": -57.916329964724014, "lon": 31.6375927514794, "alt_km": 441.3992336526708, "timestamp": "2025-12-12T16:50:32.804972+00:00", "meta": {"OBJECT_NAME": "SKYSAT-C3", "OBJECT_ID": "2016-058E", "EPOCH": "2025-12-12T01:32:43.071360", "MEAN_MOTION": 15.44357014, "ECCENTRICITY": 0.00016227, "INCLINATION": 96.9305, "RA_OF_ASC_NODE": 19.8415, "ARG_OF_PERICENTER": 107.5379, "MEAN_ANOMALY": 252.6048, "EPHEMERIS_TYPE": 0, "CLASSIFICATION_TYPE": "U", "NORAD_CAT_ID": 41774, "ELEMENT_SET_NO": 999, "REV_AT_EPOCH": 51715, "BSTAR": 0.00054672741, "MEAN_MOTION_DOT": 0.00025186, "MEAN_MOTION_DDOT": 0}, "tle": {"line1": "1 41774U 16058E   25346.06438740  .00025186  00000+0  54673-3 0  9994", "line2": "2 41774  96.9305  19.8415 0001622 107.5379 252.6048 15.44357014517158"}}, "geometry": {"type": "Point", "coordinates": [31.6375927514794, -57.916329964724014]}}, {"type": "Feature", "properties": {"norad_id": 41785, "name": "ALSAT 1B", "group": "resource", "lat": 9.845191646542775, "lon": 179.85300549125242, "alt_km": 653.1529448279953, "timestamp": "2025-12-12T16:50:32.804982+00:00", "meta": {"OBJECT_NAME": "ALSAT 1B", "OBJECT_ID": "2016-059C", "EPOCH": "2025-12-12T04:39:16.344288", "MEAN_MOTION": 14.72073762, "ECCENTRICITY": 0.00107062, "INCLINATION": 97.7817, "RA_OF_ASC_NODE": 358.0072, "ARG_OF_PERICENTER": 104.5339, "MEAN_ANOMALY": 255.7057, "EPHEMERIS_TYPE": 0, "CLASSIFICATION_TYPE": "U", "NORAD_CAT_ID": 41785, "ELEMENT_SET_NO": 999, "REV_AT_EPOCH": 49306, "BSTAR": 0.00010393317, "MEAN_MOTION_DOT": 6.07e-06, "MEAN_MOTION_DDOT": 0}, "tle": {"line1": "1 41785U 16059C   25346.19393917  .00000607  00000+0  10393-3 0  9999", "line2": "2 41785  97.7817 358.0072 0010706 104.5339 255.7057 14.72073762493062"}}, "geometry": {"type": "Point", "coordinates": [179.85300549125242, 9.845191646542775]}}, {"type": "Feature", "properties": {"norad_id": 41787, "name": "PATHFINDER 1", "group": "resource", "lat": -67.8327158872289, "lon": 149.78012787109114, "alt_km": 697.6061981780567, "timestamp": "2025-12-12T16:50:32.804992+00:00", "meta": {"OBJECT_NAME": "PATHFINDER 1", "OBJECT_ID": "2016-059E", "EPOCH": "2025-12-11T23:20:45.576672", "MEAN_MOTION": 14.67319027, "ECCENTRICITY": 0.0030047, "INCLINATION": 97.8139, "RA_OF_ASC_NODE": 348.7819, "ARG_OF_PERICENTER": 83.5355, "MEAN_ANOMALY": 276.927, "EPHEMERIS_TYPE": 0, "CLASSIFICATION_TYPE": "U", "NORAD_CAT_ID": 41787, "ELEMENT_SET_NO": 999, "REV_AT_EPOCH": 49225, "BSTAR": 0.0002355, "MEAN_MOTION_DOT": 1.291e-05, "MEAN_MOTION_DDOT": 0}, "tle": {"line1": "1 41787U 16059E   25345.97274973  .00001291  00000+0  23550-3 0  9995", "line2": "2 41787  97.8139 348.7819 0030047  83.5355 276.9270 14.67319027492254"}}, "geometry": {"type": "Point", "coordinates": [149.78012787109114, -67.8327158872289]}}, {"type": "Feature", "properties": {"norad_id": 41790, "name": "SCATSAT 1", "group": "resource", "lat": -59.712476417522566, "lon": -150.82560452518337, "alt_km": 654.7762024001304, "timestamp": "2025-12-12T16:50:32.805002+00:00", "meta": {"OBJECT_NAME": "SCATSAT 1", "OBJECT_ID": "2016-059H", "EPOCH": "2025-12-12T02:46:20.071776", "MEAN_MOTION": 14.78933776, "ECCENTRICITY": 0.00562429, "INCLINATION": 98.1465, "RA_OF_ASC_NODE": 42.7779, "ARG_OF_PERICENTER": 129.9634, "MEAN_ANOMALY": 230.6536, "EPHEMERIS_TYPE": 0, "CLASSIFICATION_TYPE": "U", "NORAD_CAT_ID": 41790, "ELEMENT_SET_NO": 999, "REV_AT_EPOCH": 7393, "BSTAR": 0.0003719498, "MEAN_MOTION_DOT": 2.761e-05, "MEAN_MOTION_DDOT": 0}, "tle": {"line1": "1 41790U 16059H   25346.11551009  .00002761  00000+0  37195-3 0  9997", "line2": "2 41790  98.1465  42.7779 0056242 129.9634 230.6536 14.78933776 73937"}}, "geometry": {"type": "Point", "coordinates": [-150.82560452518337, -59.712476417522566]}}, {"type": "Feature", "properties": {"norad_id": 41875, "name": "GOKTURK 1A", "group": "resource", "lat": -32.866451327349615, "lon": -115.62530342411965, "alt_km": 690.631014633299, "timestamp": "2025-12-12T16:50:32.805012+00:00", "meta": {"OBJECT_NAME": "GOKTURK 1A", "OBJECT_ID": "2016-073A", "EPOCH": "2025-12-12T07:08:38.330304", "MEAN_MOTION": 14.62779756, "ECCENTRICITY": 0.00012417, "INCLINATION": 98.1423, "RA_OF_ASC_NODE": 238.6686, "ARG_OF_PERICENTER": 77.2028, "MEAN_ANOMALY": 282.9313, "EPHEMERIS_TYPE": 0, "CLASSIFICATION_TYPE": "U", "NORAD_CAT_ID": 41875, "ELEMENT_SET_NO": 999, "REV_AT_EPOCH": 48150, "BSTAR": 0.0002289001, "MEAN_MOTION_DOT": 1.121e-05, "MEAN_MOTION_DDOT": 0}, "tle": {"line1": "1 41875U 16073A   25346.29766586  .00001121  00000+0  22890-3 0  9999", "line2": "2 41875  98.1423 238.6686 0001241  77.2028 282.9313 14.62779756481507"}}, "geometry": {"type": "Point", "coordinates": [-115.62530342411965, -32.866451327349615]}}, {"type": "Feature", "properties": {"norad_id": 41877, "name": "RESOURCESAT-2A", "group": "resource", "lat": 21.02422929176408, "lon": 53.15373408477219, "alt_km": 820.2574041469579, "timestamp": "2025-12-12T16:50:32.805022+00:00", "meta": {"OBJECT_NAME": "RESOURCESAT-2A", "OBJECT_ID": "2016-074A", "EPOCH": "2025-12-12T08:17:47.967648", "MEAN_MOTION": 14.21598442, "ECCENTRICITY": 0.00011369, "INCLINATION": 98.7751, "RA_OF_ASC_NODE": 56.2033, "ARG_OF_PERICENTER": 257.5022, "MEAN_ANOMALY": 102.6028, "EPHEMERIS_TYPE": 0, "CLASSIFICATION_TYPE": "U", "NORAD_CAT_ID": 41877, "ELEMENT_SET_NO": 999, "REV_AT_EPOCH": 46775, "BSTAR": 5.2062403e-05, "MEAN_MOTION_DOT": 7e-07, "MEAN_MOTION_DDOT": 0}, "tle": {"line1": "1 41877U 16074A   25346.34569407  .00000070  00000+0  52062-4 0  9998", "line2": "2 41877  98.7751  56.2033 0001136 257.5022 102.6028 14.21598442467757"}}, "geometry": {"type": "Point", "coordinates": [53.15373408477219, 21.02422929176408]}}, {"type": "Feature", "properties": {"norad_id": 41948, "name": "CARTOSAT-2D", "group": "resource", "lat": 14.127642136805637, "lon": 42.31479260441697, "alt_km": 511.8766677287549, "timestamp": "2025-12-12T16:50:32.805033+00:00", "meta": {"OBJECT_NAME": "CARTOSAT-2D", "OBJECT_ID": "2017-008A", "EPOCH": "2025-12-12T07:17:43.772640", "MEAN_MOTION": 15.19255444, "ECCENTRICITY": 0.00046564, "INCLINATION": 97.4388, "RA_OF_ASC_NODE": 43.8076, "ARG_OF_PERICENTER": 164.3463, "MEAN_ANOMALY": 195.7917, "EPHEMERIS_TYPE": 0, "CLASSIFICATION_TYPE": "U", "NORAD_CAT_ID": 41948, "ELEMENT_SET_NO": 999, "REV_AT_EPOCH": 48920, "BSTAR": 0.00045048449, "MEAN_MOTION_DOT": 9.436e-05, "MEAN_MOTION_DDOT": 0}, "tle": {"line1": "1 41948U 17008A   25346.30397885  .00009436  00000+0  45048-3 0  9990", "line2": "2 41948  97.4388  43.8076 0004656 164.3463 195.7917 15.19255444489205"}}, "geometry": {"type": "Point", "coordinates": [42.31479260441697, 14.127642136805637]}}, {"type": "Feature", "properties": {"norad_id": 42063, "name": "SENTINEL-2B", "group": "resource", "lat": -11.301167818038847, "lon": 60.87471802464692, "alt_km": 793.4756300805775, "timestamp": "2025-12-12T16:50:32.805043+00:00", "meta": {"OBJECT_NAME": "SENTINEL-2B", "OBJECT_ID": "2017-013A", "EPOCH": "2025-12-12T06:49:32.858112", "MEAN_MOTION": 14.30815696, "ECCENTRICITY": 0.00011455, "INCLINATION": 98.571, "RA_OF_ASC_NODE": 58.7362, "ARG_OF_PERICENTER": 93.2098, "MEAN_ANOMALY": 266.9216, "EPHEMERIS_TYPE": 0, "CLASSIFICATION_TYPE": "U", "NORAD_CAT_ID": 42063, "ELEMENT_SET_NO": 999, "REV_AT_EPOCH": 45791, "BSTAR": 0.00010106822, "MEAN_MOTION_DOT": 2.21e-06, "MEAN_MOTION_DDOT": 0}, "tle": {"line1": "1 42063U 17013A   25346.28440808  .00000221  00000+0  10107-3 0  9997", "line2": "2 42063  98.5710  58.7362 0001145  93.2098 266.9216 14.30815696457911"}}, "geometry": {"type": "Point", "coordinates": [60.87471802464692, -11.301167818038847]}}, {"type": "Feature", "properties": {"norad_id": 42767, "name": "CARTOSAT-2E", "group": "resource", "lat": -73.10242484425311, "lon": 69.82430647344637, "alt_km": 514.6455839535047, "timestamp": "2025-12-12T16:50:32.805053+00:00", "meta": {"OBJECT_NAME": "CARTOSAT-2E", "OBJECT_ID": "2017-036C", "EPOCH": "2025-12-12T07:41:11.383296", "MEAN_MOTION": 15.1919179, "ECCENTRICITY": 0.00019691, "INCLINATION": 97.4552, "RA_OF_ASC_NODE": 43.9125, "ARG_OF_PERICENTER": 240.6244, "MEAN_ANOMALY": 119.4794, "EPHEMERIS_TYPE": 0, "CLASSIFICATION_TYPE": "U", "NORAD_CAT_ID": 42767, "ELEMENT_SET_NO": 999, "REV_AT_EPOCH": 46977, "BSTAR": 0.00038856897, "MEAN_MOTION_DOT": 8.111e-05, "MEAN_MOTION_DDOT": 0}, "tle": {"line1": "1 42767U 17036C   25346.32027064  .00008111  00000+0  38857-3 0  9991", "line2": "2 42767  97.4552  43.9125 0001969 240.6244 119.4794 15.19191790469772"}}, "geometry": {"type": "Point", "coordinates": [69.82430647344637, -73.10242484425311]}}, {"type": "Feature", "properties": {"norad_id": 42920, "name": "FORMOSAT-5", "group": "resource", "lat": -11.870309680844413, "lon": 62.76802169143246, "alt_km": 722.4443887186872, "timestamp": "2025-12-12T16:50:32.805064+00:00", "meta": {"OBJECT_NAME": "FORMOSAT-5", "OBJECT_ID": "2017-049A", "EPOCH": "2025-12-12T06:58:03.197856", "MEAN_MOTION": 14.51005185, "ECCENTRICITY": 0.00099034, "INCLINATION": 98.2453, "RA_OF_ASC_NODE": 60.6182, "ARG_OF_PERICENTER": 297.044, "MEAN_ANOMALY": 62.9744, "EPHEMERIS_TYPE": 0, "CLASSIFICATION_TYPE": "U", "NORAD_CAT_ID": 42920, "ELEMENT_SET_NO": 999, "REV_AT_EPOCH": 43957, "BSTAR": 0.00011604472, "MEAN_MOTION_DOT": 4.15e-06, "MEAN_MOTION_DDOT": 0}, "tle": {"line1": "1 42920U 17049A   25346.29031479  .00000415  00000+0  11604-3 0  9997", "line2": "2 42920  98.2453  60.6182 0009903 297.0440  62.9744 14.51005185439570"}}, "geometry": {"type": "Point", "coordinates": [62.76802169143246, -11.870309680844413]}}]}